{"type": "FeatureCollection", "features": [ {"type": "Feature", "properties": {"norad_id": 67111, "name": "STARLINK-35875", "group": "last-30-days", "lat": -41.310209879737165, "lon": 146.87705233028612, "alt_km": 293.7121674606251, "timestamp": "2025-12-22T14:45:56.101069+00:00", "meta": {"OBJECT_NAME": "STARLINK-35875", "OBJECT_ID": "2025-299K", "EPOCH": "2025-12-22T06:00:02.000160", "MEAN_MOTION": 15.93794949, "ECCENTRICITY": 0.00019752, "INCLINATION": 42.9986, "RA_OF_ASC_NODE": 258.5623, "ARG_OF_PERICENTER": 286.9162, "MEAN_ANOMALY": 30.5323, "EPHEMERIS_TYPE": 0, "CLASSIFICATION_TYPE": "U", "NORAD_CAT_ID": 67111, "ELEMENT_SET_NO": 999, "REV_AT_EPOCH": 223, "BSTAR": 0.00018413131, "MEAN_MOTION_DOT": 0.00067116, "MEAN_MOTION_DDOT": 1.0126362e-05}, "tle": {"line1": "1 67111U 25299K   25356.25002315  .00067116  10126-4  18413-3 0  9997", "line2": "2 67111  42.9986 258.5623 0001975 286.9162  30.5323 15.93794949  2236"}}, "geometry": {"type": "Point", "coordinates": [146.87705233028612, -41.310209879737165]}}, {"type": "Feature", "properties": {"norad_id": 67112, "name": "STARLINK-35906", "group": "last-30-days", "lat": -41.92737475508852, "lon": 150.82666957515445, "alt_km": 293.3256746307934, "timestamp": "2025-12-22T14:45:56.101079+00:00", "meta": {"OBJECT_NAME": "STARLINK-35906", "OBJECT_ID": "2025-299L", "EPOCH": "2025-12-22T06:00:02.000160", "MEAN_MOTION": 15.93808873, "ECCENTRICITY": 0.00024917, "INCLINATION": 42.9987, "RA_OF_ASC_NODE": 258.5547, "ARG_OF_PERICENTER": 281.2401, "MEAN_ANOMALY": 39.2249, "EPHEMERIS_TYPE": 0, "CLASSIFICATION_TYPE": "U", "NORAD_CAT_ID": 67112, "ELEMENT_SET_NO": 999, "REV_AT_EPOCH": 223, "BSTAR": 0.00013635393, "MEAN_MOTION_DOT": 0.00049058, "MEAN_MOTION_DDOT": 9.339112e-06}, "tle": {"line1": "1 67112U 25299L   25356.25002315  .00049058  93391-5  13635-3 0  9990", "line2": "2 67112  42.9987 258.5547 0002491 281.2401  39.2249 15.93808873  2236"}}, "geometry": {"type": "Point", "coordinates": [150.82666957515445, -41.92737475508852]}}, {"type": "Feature", "properties": {"norad_id": 67113, "name": "STARLINK-35789", "group": "last-30-days", "lat": -42.18008412381015, "lon": 152.79223083378236, "alt_km": 293.89873275601894, "timestamp": "2025-12-22T14:45:56.101091+00:00", "meta": {"OBJECT_NAME": "STARLINK-35789", "OBJECT_ID": "2025-299M", "EPOCH": "2025-12-22T06:00:02.000160", "MEAN_MOTION": 15.93769352, "ECCENTRICITY": 0.00017987, "INCLINATION": 42.9987, "RA_OF_ASC_NODE": 258.5507, "ARG_OF_PERICENTER": 294.1981, "MEAN_ANOMALY": 27.7847, "EPHEMERIS_TYPE": 0, "CLASSIFICATION_TYPE": "U", "NORAD_CAT_ID": 67113, "ELEMENT_SET_NO": 999, "REV_AT_EPOCH": 223, "BSTAR": 0.00025044766, "MEAN_MOTION_DOT": 0.00092109, "MEAN_MOTION_DDOT": 1.1609808e-05}, "tle": {"line1": "1 67113U 25299M   25356.25002315  .00092109  11610-4  25045-3 0  9997", "line2": "2 67113  42.9987 258.5507 0001798 294.1981  27.7847 15.93769352  2232"}}, "geometry": {"type": "Point", "coordinates": [152.79223083378236, -42.18008412381015]}}, {"type": "Feature", "properties": {"norad_id": 67114, "name": "STARLINK-36180", "group": "last-30-days", "lat": -42.44176818952652, "lon": 155.2033065804531, "alt_km": 293.2304747621138, "timestamp": "2025-12-22T14:45:56.101101+00:00", "meta": {"OBJECT_NAME": "STARLINK-36180", "OBJECT_ID": "2025-299N", "EPOCH": "2025-12-22T06:00:02.000160", "MEAN_MOTION": 15.93746956, "ECCENTRICITY": 0.00025635, "INCLINATION": 42.9988, "RA_OF_ASC_NODE": 258.5464, "ARG_OF_PERICENTER": 255.9587, "MEAN_ANOMALY": 67.8478, "EPHEMERIS_TYPE": 0, "CLASSIFICATION_TYPE": "U", "NORAD_CAT_ID": 67114, "ELEMENT_SET_NO": 999, "REV_AT_EPOCH": 234, "BSTAR": 0.00025125275, "MEAN_MOTION_DOT": 0.00092317, "MEAN_MOTION_DDOT": 1.1621199e-05}, "tle": {"line1": "1 67114U 25299N   25356.25002315  .00092317  11621-4  25125-3 0  9990", "line2": "2 67114  42.9988 258.5464 0002563 255.9587  67.8478 15.93746956  2346"}}, "geometry": {"type": "Point", "coordinates": [155.2033065804531, -42.44176818952652]}}, {"type": "Feature", "properties": {"norad_id": 67115, "name": "STARLINK-35892", "group": "last-30-days", "lat": -42.617184592228696, "lon": 157.18140471596553, "alt_km": 293.3581584516469, "timestamp": "2025-12-22T14:45:56.101111+00:00", "meta": {"OBJECT_NAME": "STARLINK-35892", "OBJECT_ID": "2025-299P", "EPOCH": "2025-12-22T06:00:02.000160", "MEAN_MOTION": 15.93746741, "ECCENTRICITY": 0.00023558, "INCLINATION": 42.9988, "RA_OF_ASC_NODE": 258.5426, "ARG_OF_PERICENTER": 282.7602, "MEAN_ANOMALY": 42.5003, "EPHEMERIS_TYPE": 0, "CLASSIFICATION_TYPE": "U", "NORAD_CAT_ID": 67115, "ELEMENT_SET_NO": 999, "REV_AT_EPOCH": 223, "BSTAR": 0.0004228471, "MEAN_MOTION_DOT": 0.00157153, "MEAN_MOTION_DDOT": 1.7663791e-05}, "tle": {"line1": "1 67115U 25299P   25356.25002315  .00157153  17664-4  42285-3 0  9990", "line2": "2 67115  42.9988 258.5426 0002355 282.7602  42.5003 15.93746741  2234"}}, "geometry": {"type": "Point", "coordinates": [157.18140471596553, -42.617184592228696]}}, {"type": "Feature", "properties": {"norad_id": 67116, "name": "STARLINK-35738", "group": "last-30-days", "lat": -42.78983491658519, "lon": 159.69809397509837, "alt_km": 293.39064789300664, "timestamp": "2025-12-22T14:45:56.101121+00:00", "meta": {"OBJECT_NAME": "STARLINK-35738", "OBJECT_ID": "2025-299Q", "EPOCH": "2025-12-22T06:00:02.000160", "MEAN_MOTION": 15.9375335, "ECCENTRICITY": 0.0002199, "INCLINATION": 42.9988, "RA_OF_ASC_NODE": 258.5381, "ARG_OF_PERICENTER": 278.2904, "MEAN_ANOMALY": 48.8217, "EPHEMERIS_TYPE": 0, "CLASSIFICATION_TYPE": "U", "NORAD_CAT_ID": 67116, "ELEMENT_SET_NO": 999, "REV_AT_EPOCH": 223, "BSTAR": 0.00042384461, "MEAN_MOTION_DOT": 0.00157581, "MEAN_MOTION_DDOT": 1.7715165e-05}, "tle": {"line1": "1 67116U 25299Q   25356.25002315  .00157581  17715-4  42384-3 0  9993", "line2": "2 67116  42.9988 258.5381 0002199 278.2904  48.8217 15.93753350  2236"}}, "geometry": {"type": "Point", "coordinates": [159.69809397509837, -42.78983491658519]}}, {"type": "Feature", "properties": {"norad_id": 67117, "name": "STARLINK-35674", "group": "last-30-days", "lat": -42.8966847783145, "lon": 161.94304308163944, "alt_km": 293.4832794908252, "timestamp": "2025-12-22T14:45:56.101133+00:00", "meta": {"OBJECT_NAME": "STARLINK-35674", "OBJECT_ID": "2025-299R", "EPOCH": "2025-12-22T06:00:02.000160", "MEAN_MOTION": 15.93819166, "ECCENTRICITY": 0.00020515, "INCLINATION": 42.9989, "RA_OF_ASC_NODE": 258.5339, "ARG_OF_PERICENTER": 267.0786, "MEAN_ANOMALY": 61.6517, "EPHEMERIS_TYPE": 0, "CLASSIFICATION_TYPE": "U", "NORAD_CAT_ID": 67117, "ELEMENT_SET_NO": 999, "REV_AT_EPOCH": 213, "BSTAR": 0.00012058767, "MEAN_MOTION_DOT": 0.00043099, "MEAN_MOTION_DDOT": 9.132263e-06}, "tle": {"line1": "1 67117U 25299R   25356.25002315  .00043099  91323-5  12059-3 0  9996", "line2": "2 67117  42.9989 258.5339 0002051 267.0786  61.6517 15.93819166  2135"}}, "geometry": {"type": "Point", "coordinates": [161.94304308163944, -42.8966847783145]}}, {"type": "Feature", "properties": {"norad_id": 67118, "name": "STARLINK-35701", "group": "last-30-days", "lat": -42.96020696781657, "lon": 164.24118977779085, "alt_km": 293.18952953239295, "timestamp": "2025-12-22T14:45:56.101143+00:00", "meta": {"OBJECT_NAME": "STARLINK-35701", "OBJECT_ID": "2025-299S", "EPOCH": "2025-12-22T06:00:02.000160", "MEAN_MOTION": 15.93825141, "ECCENTRICITY": 0.00025509, "INCLINATION": 42.999, "RA_OF_ASC_NODE": 258.5296, "ARG_OF_PERICENTER": 279.6777, "MEAN_ANOMALY": 50.7418, "EPHEMERIS_TYPE": 0, "CLASSIFICATION_TYPE": "U", "NORAD_CAT_ID": 67118, "ELEMENT_SET_NO": 999, "REV_AT_EPOCH": 229, "BSTAR": 0.00011215507, "MEAN_MOTION_DOT": 0.00039918, "MEAN_MOTION_DDOT": 9.031669e-06}, "tle": {"line1": "1 67118U 25299S   25356.25002315  .00039918  90317-5  11216-3 0  9998", "line2": "2 67118  42.9990 258.5296 0002550 279.6777  50.7418 15.93825141  2299"}}, "geometry": {"type": "Point", "coordinates": [164.24118977779085, -42.96020696781657]}}, {"type": "Feature", "properties": {"norad_id": 67119, "name": "STARLINK-36179", "group": "last-30-days", "lat": -42.96878609995646, "lon": 167.6505482609594, "alt_km": 293.21083198354245, "timestamp": "2025-12-22T14:45:56.101153+00:00", "meta": {"OBJECT_NAME": "STARLINK-36179", "OBJECT_ID": "2025-299T", "EPOCH": "2025-12-22T06:00:02.000160", "MEAN_MOTION": 15.93824503, "ECCENTRICITY": 0.00024647, "INCLINATION": 42.9986, "RA_OF_ASC_NODE": 258.523, "ARG_OF_PERICENTER": 280.8383, "MEAN_ANOMALY": 52.078, "EPHEMERIS_TYPE": 0, "CLASSIFICATION_TYPE": "U", "NORAD_CAT_ID": 67119, "ELEMENT_SET_NO": 999, "REV_AT_EPOCH": 234, "BSTAR": 0.00014932725, "MEAN_MOTION_DOT": 0.00054024, "MEAN_MOTION_DDOT": 9.532377e-06}, "tle": {"line1": "1 67119U 25299T   25356.25002315  .00054024  95324-5  14933-3 0  9996", "line2": "2 67119  42.9986 258.5230 0002464 280.8383  52.0780 15.93824503  2348"}}, "geometry": {"type": "Point", "coordinates": [167.6505482609594, -42.96878609995646]}}, {"type": "Feature", "properties": {"norad_id": 67120, "name": "STARLINK-36217", "group": "last-30-days", "lat": -42.977700847276175, "lon": 166.1026775207294, "alt_km": 293.60472618059066, "timestamp": "2025-12-22T14:45:56.101163+00:00", "meta": {"OBJECT_NAME": "STARLINK-36217", "OBJECT_ID": "2025-299U", "EPOCH": "2025-12-22T06:00:02.000160", "MEAN_MOTION": 15.93827556, "ECCENTRICITY": 0.00020223, "INCLINATION": 42.999, "RA_OF_ASC_NODE": 258.5262, "ARG_OF_PERICENTER": 292.5735, "MEAN_ANOMALY": 39.2102, "EPHEMERIS_TYPE": 0, "CLASSIFICATION_TYPE": "U", "NORAD_CAT_ID": 67120, "ELEMENT_SET_NO": 999, "REV_AT_EPOCH": 234, "BSTAR": 0.00012555249, "MEAN_MOTION_DOT": 0.00045004, "MEAN_MOTION_DDOT": 9.196535e-06}, "tle": {"line1": "1 67120U 25299U   25356.25002315  .00045004  91965-5  12555-3 0  9991", "line2": "2 67120  42.9990 258.5262 0002022 292.5735  39.2102 15.93827556  2347"}}, "geometry": {"type": "Point", "coordinates": [166.1026775207294, -42.977700847276175]}}]}